{
  "norad_id": 62138,
  "name": "KONDOR-FKA NO. 2",
  "history": [
    {
      "epoch": "2026-03-28T12:29:20.181408Z",
      "apogee_km": 507.7296626986981,
      "perigee_km": 505.3814317646875,
      "latitude_deg": 7.387372171584857e-05,
      "longitude_deg": -81.14293707570461,
      "height_km": 509.65629920373044,
      "semi_major_axis_km": 6884.6925472316925,
      "eccentricity": 0.00017054,
      "inclination_deg": 97.4343,
      "raan_deg": 292.1308,
      "arg_perigee_deg": 90.6976,
      "mean_anomaly_deg": 269.4455,
      "mean_motion_rev_day": 15.19763242
    }
  ]
}